[{"OBJECT_NAME":"RESURS-P 5","OBJECT_ID":"2024-250A","EPOCH":"2026-03-09T23:31:56.908992","MEAN_MOTION":15.32839945,"ECCENTRICITY":0.00026027,"INCLINATION":97.276,"RA_OF_ASC_NODE":355.9792,"ARG_OF_PERICENTER":63.1234,"MEAN_ANOMALY":297.0274,"EPHEMERIS_TYPE":0,"CLASSIFICATION_TYPE":"U","NORAD_CAT_ID":62430,"ELEMENT_SET_NO":999,"REV_AT_EPOCH":6735,"BSTAR":0.00015600887,"MEAN_MOTION_DOT":4.871e-5,"MEAN_MOTION_DDOT":0},{"OBJECT_NAME":"STARLINK-35539","OBJECT_ID":"2025-225F","EPOCH":"2026-03-09T12:45:12.470976","MEAN_MOTION":15.30161108,"ECCENTRICITY":0.00015694,"INCLINATION":53.159,"RA_OF_ASC_NODE":166.4505,"ARG_OF_PERICENTER":68.7551,"MEAN_ANOMALY":291.3618,"EPHEMERIS_TYPE":0,"CLASSIFICATION_TYPE":"U","NORAD_CAT_ID":65915,"ELEMENT_SET_NO":999,"REV_AT_EPOCH":2438,"BSTAR":0.0012806501,"MEAN_MOTION_DOT":0.00037717,"MEAN_MOTION_DDOT":0}]
